{"type": "FeatureCollection", "features": [ {"type": "Feature", "properties": {"norad_id": 67040, "name": "STARLINK-35786", "group": "last-30-days", "lat": 1.0843855013031556, "lon": 97.19815607244142, "alt_km": 374.82307738836334, "timestamp": "2025-12-26T20:30:44.702980+00:00", "meta": {"OBJECT_NAME": "STARLINK-35786", "OBJECT_ID": "2025-294L", "EPOCH": "2025-12-26T14:00:04.000032", "MEAN_MOTION": 15.65386891, "ECCENTRICITY": 0.00013395, "INCLINATION": 42.9994, "RA_OF_ASC_NODE": 97.6557, "ARG_OF_PERICENTER": 276.8763, "MEAN_ANOMALY": 354.5933, "EPHEMERIS_TYPE": 0, "CLASSIFICATION_TYPE": "U", "NORAD_CAT_ID": 67040, "ELEMENT_SET_NO": 999, "REV_AT_EPOCH": 233, "BSTAR": -0.021430898, "MEAN_MOTION_DOT": -0.0194202, "MEAN_MOTION_DDOT": 0}, "tle": {"line1": "1 67040U 25294L   25360.58337963 -.01942020  00000+0 -21431-1 0  9990", "line2": "2 67040  42.9994  97.6557 0001339 276.8763 354.5933 15.65386891  2332"}}, "geometry": {"type": "Point", "coordinates": [97.19815607244142, 1.0843855013031556]}}, {"type": "Feature", "properties": {"norad_id": 67041, "name": "STARLINK-35765", "group": "last-30-days", "lat": 3.790531404196817, "lon": 100.10085332787466, "alt_km": 374.58398313778616, "timestamp": "2025-12-26T20:30:44.702989+00:00", "meta": {"OBJECT_NAME": "STARLINK-35765", "OBJECT_ID": "2025-294M", "EPOCH": "2025-12-26T14:00:04.000032", "MEAN_MOTION": 15.6537256, "ECCENTRICITY": 0.00013261, "INCLINATION": 42.999, "RA_OF_ASC_NODE": 97.645, "ARG_OF_PERICENTER": 276.1685, "MEAN_ANOMALY": 359.2885, "EPHEMERIS_TYPE": 0, "CLASSIFICATION_TYPE": "U", "NORAD_CAT_ID": 67041, "ELEMENT_SET_NO": 999, "REV_AT_EPOCH": 233, "BSTAR": -0.021445752, "MEAN_MOTION_DOT": -0.01942204, "MEAN_MOTION_DDOT": 0}, "tle": {"line1": "1 67041U 25294M   25360.58337963 -.01942204  00000+0 -21446-1 0  9991", "line2": "2 67041  42.9990  97.6450 0001326 276.1685 359.2885 15.65372560  2339"}}, "geometry": {"type": "Point", "coordinates": [100.10085332787466, 3.790531404196817]}}, {"type": "Feature", "properties": {"norad_id": 67042, "name": "STARLINK-35773", "group": "last-30-days", "lat": 5.180733692588196, "lon": 101.60233483247976, "alt_km": 374.43395995435185, "timestamp": "2025-12-26T20:30:44.702999+00:00", "meta": {"OBJECT_NAME": "STARLINK-35773", "OBJECT_ID": "2025-294N", "EPOCH": "2025-12-26T14:00:04.000032", "MEAN_MOTION": 15.65364733, "ECCENTRICITY": 0.0001365, "INCLINATION": 42.9992, "RA_OF_ASC_NODE": 97.6399, "ARG_OF_PERICENTER": 277.3232, "MEAN_ANOMALY": 0.1883, "EPHEMERIS_TYPE": 0, "CLASSIFICATION_TYPE": "U", "NORAD_CAT_ID": 67042, "ELEMENT_SET_NO": 999, "REV_AT_EPOCH": 252, "BSTAR": -0.021502978, "MEAN_MOTION_DOT": -0.01946259, "MEAN_MOTION_DDOT": 0}, "tle": {"line1": "1 67042U 25294N   25360.58337963 -.01946259  00000+0 -21503-1 0  9990", "line2": "2 67042  42.9992  97.6399 0001365 277.3232   0.1883 15.65364733  2522"}}, "geometry": {"type": "Point", "coordinates": [101.60233483247976, 5.180733692588196]}}, {"type": "Feature", "properties": {"norad_id": 67043, "name": "STARLINK-35901", "group": "last-30-days", "lat": 6.560557613168545, "lon": 103.10315155791876, "alt_km": 374.2765160045219, "timestamp": "2025-12-26T20:30:44.703010+00:00", "meta": {"OBJECT_NAME": "STARLINK-35901", "OBJECT_ID": "2025-294P", "EPOCH": "2025-12-26T14:00:04.000032", "MEAN_MOTION": 15.653513, "ECCENTRICITY": 0.00013628, "INCLINATION": 42.9991, "RA_OF_ASC_NODE": 97.6349, "ARG_OF_PERICENTER": 278.7401, "MEAN_ANOMALY": 0.8188, "EPHEMERIS_TYPE": 0, "CLASSIFICATION_TYPE": "U", "NORAD_CAT_ID": 67043, "ELEMENT_SET_NO": 999, "REV_AT_EPOCH": 252, "BSTAR": -0.02145202, "MEAN_MOTION_DOT": -0.01941256, "MEAN_MOTION_DDOT": 0}, "tle": {"line1": "1 67043U 25294P   25360.58337963 -.01941256  00000+0 -21452-1 0  9996", "line2": "2 67043  42.9991  97.6349 0001362 278.7401   0.8188 15.65351300  2528"}}, "geometry": {"type": "Point", "coordinates": [103.10315155791876, 6.560557613168545]}}, {"type": "Feature", "properties": {"norad_id": 67044, "name": "STARLINK-35884", "group": "last-30-days", "lat": 7.919736971565716, "lon": 104.59436361579297, "alt_km": 374.1428524306193, "timestamp": "2025-12-26T20:30:44.703018+00:00", "meta": {"OBJECT_NAME": "STARLINK-35884", "OBJECT_ID": "2025-294Q", "EPOCH": "2025-12-26T14:00:04.000032", "MEAN_MOTION": 15.65344648, "ECCENTRICITY": 0.0001406, "INCLINATION": 42.9994, "RA_OF_ASC_NODE": 97.6299, "ARG_OF_PERICENTER": 278.6491, "MEAN_ANOMALY": 2.9279, "EPHEMERIS_TYPE": 0, "CLASSIFICATION_TYPE": "U", "NORAD_CAT_ID": 67044, "ELEMENT_SET_NO": 999, "REV_AT_EPOCH": 252, "BSTAR": -0.021470995, "MEAN_MOTION_DOT": -0.01942341, "MEAN_MOTION_DDOT": 0}, "tle": {"line1": "1 67044U 25294Q   25360.58337963 -.01942341  00000+0 -21471-1 0  9994", "line2": "2 67044  42.9994  97.6299 0001406 278.6491   2.9279 15.65344648  2524"}}, "geometry": {"type": "Point", "coordinates": [104.59436361579297, 7.919736971565716]}}, {"type": "Feature", "properties": {"norad_id": 67045, "name": "STARLINK-35891", "group": "last-30-days", "lat": 9.379074678928632, "lon": 106.21314685894043, "alt_km": 374.0522179837062, "timestamp": "2025-12-26T20:30:44.703029+00:00", "meta": {"OBJECT_NAME": "STARLINK-35891", "OBJECT_ID": "2025-294R", "EPOCH": "2025-12-26T14:00:04.000032", "MEAN_MOTION": 15.65324757, "ECCENTRICITY": 0.00013894, "INCLINATION": 42.9996, "RA_OF_ASC_NODE": 97.6244, "ARG_OF_PERICENTER": 277.475, "MEAN_ANOMALY": 6.2906, "EPHEMERIS_TYPE": 0, "CLASSIFICATION_TYPE": "U", "NORAD_CAT_ID": 67045, "ELEMENT_SET_NO": 999, "REV_AT_EPOCH": 244, "BSTAR": -0.021490453, "MEAN_MOTION_DOT": -0.01942501, "MEAN_MOTION_DDOT": 0}, "tle": {"line1": "1 67045U 25294R   25360.58337963 -.01942501  00000+0 -21490-1 0  9994", "line2": "2 67045  42.9996  97.6244 0001389 277.4750   6.2906 15.65324757  2446"}}, "geometry": {"type": "Point", "coordinates": [106.21314685894043, 9.379074678928632]}}, {"type": "Feature", "properties": {"norad_id": 67046, "name": "STARLINK-35721", "group": "last-30-days", "lat": 10.768730232090508, "lon": 107.77536784761575, "alt_km": 373.95393556472663, "timestamp": "2025-12-26T20:30:44.703038+00:00", "meta": {"OBJECT_NAME": "STARLINK-35721", "OBJECT_ID": "2025-294S", "EPOCH": "2025-12-26T14:00:04.000032", "MEAN_MOTION": 15.65308953, "ECCENTRICITY": 0.00013724, "INCLINATION": 42.9996, "RA_OF_ASC_NODE": 97.6193, "ARG_OF_PERICENTER": 275.9882, "MEAN_ANOMALY": 9.8676, "EPHEMERIS_TYPE": 0, "CLASSIFICATION_TYPE": "U", "NORAD_CAT_ID": 67046, "ELEMENT_SET_NO": 999, "REV_AT_EPOCH": 252, "BSTAR": -0.021459909, "MEAN_MOTION_DOT": -0.01938958, "MEAN_MOTION_DDOT": 0}, "tle": {"line1": "1 67046U 25294S   25360.58337963 -.01938958  00000+0 -21460-1 0  9993", "line2": "2 67046  42.9996  97.6193 0001372 275.9882   9.8676 15.65308953  2523"}}, "geometry": {"type": "Point", "coordinates": [107.77536784761575, 10.768730232090508]}}, {"type": "Feature", "properties": {"norad_id": 67047, "name": "STARLINK-35779", "group": "last-30-days", "lat": 12.212016252553198, "lon": 109.42307111124083, "alt_km": 373.80721925231774, "timestamp": "2025-12-26T20:30:44.703046+00:00", "meta": {"OBJECT_NAME": "STARLINK-35779", "OBJECT_ID": "2025-294T", "EPOCH": "2025-12-26T14:00:04.000032", "MEAN_MOTION": 15.65289753, "ECCENTRICITY": 0.00014015, "INCLINATION": 42.9994, "RA_OF_ASC_NODE": 97.614, "ARG_OF_PERICENTER": 277.9167, "MEAN_ANOMALY": 10.1279, "EPHEMERIS_TYPE": 0, "CLASSIFICATION_TYPE": "U", "NORAD_CAT_ID": 67047, "ELEMENT_SET_NO": 999, "REV_AT_EPOCH": 233, "BSTAR": -0.0215526, "MEAN_MOTION_DOT": -0.01945033, "MEAN_MOTION_DDOT": 0}, "tle": {"line1": "1 67047U 25294T   25360.58337963 -.01945033  00000+0 -21553-1 0  9999", "line2": "2 67047  42.9994  97.6140 0001401 277.9167  10.1279 15.65289753  2334"}}, "geometry": {"type": "Point", "coordinates": [109.42307111124083, 12.212016252553198]}}, {"type": "Feature", "properties": {"norad_id": 67048, "name": "STARLINK-35905", "group": "last-30-days", "lat": 13.49631207541216, "lon": 110.91388162527218, "alt_km": 373.63889390466284, "timestamp": "2025-12-26T20:30:44.703055+00:00", "meta": {"OBJECT_NAME": "STARLINK-35905", "OBJECT_ID": "2025-294U", "EPOCH": "2025-12-26T14:00:04.000032", "MEAN_MOTION": 15.65285342, "ECCENTRICITY": 0.00014102, "INCLINATION": 42.9996, "RA_OF_ASC_NODE": 97.6092, "ARG_OF_PERICENTER": 278.815, "MEAN_ANOMALY": 11.1749, "EPHEMERIS_TYPE": 0, "CLASSIFICATION_TYPE": "U", "NORAD_CAT_ID": 67048, "ELEMENT_SET_NO": 999, "REV_AT_EPOCH": 244, "BSTAR": -0.02152321, "MEAN_MOTION_DOT": -0.01942394, "MEAN_MOTION_DDOT": 0}, "tle": {"line1": "1 67048U 25294U   25360.58337963 -.01942394  00000+0 -21523-1 0  9994", "line2": "2 67048  42.9996  97.6092 0001410 278.8150  11.1749 15.65285342  2440"}}, "geometry": {"type": "Point", "coordinates": [110.91388162527218, 13.49631207541216]}}, {"type": "Feature", "properties": {"norad_id": 67049, "name": "STARLINK-35877", "group": "last-30-days", "lat": 14.892305292794477, "lon": 112.56439782418154, "alt_km": 373.52485221880306, "timestamp": "2025-12-26T20:30:44.703064+00:00", "meta": {"OBJECT_NAME": "STARLINK-35877", "OBJECT_ID": "2025-294V", "EPOCH": "2025-12-26T14:00:04.000032", "MEAN_MOTION": 15.65269595, "ECCENTRICITY": 0.00014127, "INCLINATION": 42.9997, "RA_OF_ASC_NODE": 97.6034, "ARG_OF_PERICENTER": 278.1291, "MEAN_ANOMALY": 14.0026, "EPHEMERIS_TYPE": 0, "CLASSIFICATION_TYPE": "U", "NORAD_CAT_ID": 67049, "ELEMENT_SET_NO": 999, "REV_AT_EPOCH": 252, "BSTAR": -0.021533837, "MEAN_MOTION_DOT": -0.0194215, "MEAN_MOTION_DDOT": 0}, "tle": {"line1": "1 67049U 25294V   25360.58337963 -.01942150  00000+0 -21534-1 0  9997", "line2": "2 67049  42.9997  97.6034 0001412 278.1291  14.0026 15.65269595  2520"}}, "geometry": {"type": "Point", "coordinates": [112.56439782418154, 14.892305292794477]}}]}